IRIDIUM 171             
1 43929U 19002H   25087.34049888  .00000649  00000+0  22465-3 0  9995
2 43929  86.4054 180.1617 0001905 105.3105 254.8301 14.34216435325051
IRIDIUM 170             
1 43930U 19002J   25087.29701063  .00002805  00000+0  44102-3 0  9999
2 43930  86.6138 179.9448 0002974 112.6775 247.4757 14.72239987333654
IRIDIUM 167             
1 43931U 19002K   25087.33415259  .00000843  00000+0  29402-3 0  9990
2 43931  86.4043 179.9263 0001677  97.0323 263.1063 14.34215423325054
IRIDIUM 181             
1 56726U 23068S   25087.45710836  .00000990  00000+0  28832-3 0  9994
2 56726  86.4485 242.9368 0001776 107.9129 252.2265 14.43287867 98143
IRIDIUM 177             
1 56727U 23068T   25087.28720195  .00003825  00000+0  49970-3 0  9991
2 56727  86.2041 180.5003 0001804 110.1557 249.9858 14.80241157100403
IRIDIUM 174             
1 56728U 23068U   25087.34936490  .00004105  00000+0  53691-3 0  9993
2 56728  86.2041 180.5964 0002662 100.6421 259.5100 14.80206553100416
IRIDIUM 178             
1 56729U 23068V   25087.41149863  .00004157  00000+0  54366-3 0  9999
2 56729  86.6591 211.5143 0002158 105.6865 254.4595 14.80228083100427
IRIDIUM 179             
1 56730U 23068W   25087.40613455  .00003865  00000+0  50558-3 0  9997
2 56730  86.6816 219.1478 0002280  81.7476 278.4004 14.80194052100421
